start=new Date('2022-01-23T00:00:00.000Z').valueOf();
sats=[{"CENTER_NAME":"EARTH","CLASSIFICATION_TYPE":"U","APOAPSIS":"548.217","OBJECT_ID":"2021-005AE","REV_AT_EPOCH":"5581","COUNTRY_CODE":"US","MEAN_MOTION":"15.06398791","RA_OF_ASC_NODE":"349.4121","MEAN_MOTION_DOT":"-0.00000811","SITE":"AFETR","ELEMENT_SET_NO":"999","FILE":"3280062","EPHEMERIS_TYPE":"0","OBJECT_NAME":"STARLINK-2097","PERIOD":"95.592","NORAD_CAT_ID":"47377","REF_FRAME":"TEME","TLE_LINE2":"2 47377  53.0593 349.4121 0001443  67.6782 292.4360 15.06398791 55811","RCS_SIZE":"LARGE","LAUNCH_DATE":"2021-01-20","EPOCH":"2022-01-22T02:33:20.259936","INCLINATION":"53.0593","OBJECT_TYPE":"PAYLOAD","MEAN_ANOMALY":"292.4360","ECCENTRICITY":"0.00014430","ARG_OF_PERICENTER":"67.6782","SEMIMAJOR_AXIS":"6925.352","GP_ID":"194395152","TIME_SYSTEM":"UTC","TLE_LINE1":"1 47377U 21005AE  22022.10648449 -.00000811  00000-0 -35546-4 0  9999","BSTAR":"-0.00003554600000","DECAY_DATE":null,"MEAN_MOTION_DDOT":"0.0000000000000","MEAN_ELEMENT_THEORY":"SGP4","PERIAPSIS":"546.218"},{"TLE_LINE2":"2 47395  53.0550 307.6554 0002005  50.9633 309.1534 15.06422743 56438","REF_FRAME":"TEME","NORAD_CAT_ID":"47395","RCS_SIZE":"MEDIUM","LAUNCH_DATE":"2021-01-20","MEAN_ANOMALY":"309.1534","OBJECT_TYPE":"PAYLOAD","INCLINATION":"53.0550","EPOCH":"2022-01-22T12:01:15.523968","ECCENTRICITY":"0.00020050","SEMIMAJOR_AXIS":"6925.279","ARG_OF_PERICENTER":"50.9633","GP_ID":"194401020","TIME_SYSTEM":"UTC","TLE_LINE1":"1 47395U 21005AY  22022.50087412  .00006670  00000-0  46595-3 0  9992","MEAN_MOTION_DDOT":"0.0000000000000","DECAY_DATE":null,"BSTAR":"0.00046595000000","MEAN_ELEMENT_THEORY":"SGP4","PERIAPSIS":"545.755","CENTER_NAME":"EARTH","APOAPSIS":"548.532","OBJECT_ID":"2021-005AY","CLASSIFICATION_TYPE":"U","REV_AT_EPOCH":"5643","MEAN_MOTION":"15.06422743","COUNTRY_CODE":"US","RA_OF_ASC_NODE":"307.6554","MEAN_MOTION_DOT":"0.00006670","ELEMENT_SET_NO":"999","SITE":"AFETR","FILE":"3280187","EPHEMERIS_TYPE":"0","OBJECT_NAME":"STARLINK-2117","PERIOD":"95.591"},{"MEAN_ELEMENT_THEORY":"SGP4","PERIAPSIS":"210.851","TLE_LINE1":"1 47414U 21006B   22023.11278694  .06290680  24645-5  30365-2 0  9992","DECAY_DATE":null,"MEAN_MOTION_DDOT":"0.0000024645000","BSTAR":"0.00303650000000","GP_ID":"194404796","TIME_SYSTEM":"UTC","SEMIMAJOR_AXIS":"6594.436","ARG_OF_PERICENTER":"283.4197","ECCENTRICITY":"0.00082640","LAUNCH_DATE":"2021-01-24","OBJECT_TYPE":"PAYLOAD","MEAN_ANOMALY":"76.7648","EPOCH":"2022-01-23T02:42:24.791616","INCLINATION":"97.4569","TLE_LINE2":"2 47414  97.4569  94.4802 0008264 283.4197  76.7648 16.21198873 55850","REF_FRAME":"TEME","NORAD_CAT_ID":"47414","RCS_SIZE":"LARGE","PERIOD":"88.823","OBJECT_NAME":"STARLINK-2200","EPHEMERIS_TYPE":"0","ELEMENT_SET_NO":"999","SITE":"AFETR","FILE":"3280366","RA_OF_ASC_NODE":"94.4802","MEAN_MOTION_DOT":"0.06290680","MEAN_MOTION":"16.21198873","COUNTRY_CODE":"US","REV_AT_EPOCH":"5585","CENTER_NAME":"EARTH","APOAPSIS":"221.750","OBJECT_ID":"2021-006B","CLASSIFICATION_TYPE":"U"},{"MEAN_MOTION_DDOT":"0.0000024607000","DECAY_DATE":null,"BSTAR":"0.00293640000000","TLE_LINE1":"1 47415U 21006C   22023.06581411  .05202548  24607-5  29364-2 0  9991","PERIAPSIS":"218.490","MEAN_ELEMENT_THEORY":"SGP4","SEMIMAJOR_AXIS":"6599.805","ARG_OF_PERICENTER":"282.6681","TIME_SYSTEM":"UTC","GP_ID":"194404793","ECCENTRICITY":"0.00048190","RCS_SIZE":"LARGE","TLE_LINE2":"2 47415  97.4754  90.1441 0004819 282.6681  77.4151 16.19220860 55542","NORAD_CAT_ID":"47415","REF_FRAME":"TEME","MEAN_ANOMALY":"77.4151","OBJECT_TYPE":"PAYLOAD","EPOCH":"2022-01-23T01:34:46.339104","INCLINATION":"97.4754","LAUNCH_DATE":"2021-01-24","OBJECT_NAME":"STARLINK-2201","PERIOD":"88.932","FILE":"3280364","ELEMENT_SET_NO":"999","SITE":"AFETR","EPHEMERIS_TYPE":"0","MEAN_MOTION":"16.19220860","COUNTRY_CODE":"US","MEAN_MOTION_DOT":"0.05202548","RA_OF_ASC_NODE":"90.1441","APOAPSIS":"224.851","OBJECT_ID":"2021-006C","CLASSIFICATION_TYPE":"U","CENTER_NAME":"EARTH","REV_AT_EPOCH":"5554"},{"TIME_SYSTEM":"UTC","GP_ID":"194404797","ARG_OF_PERICENTER":"299.3500","SEMIMAJOR_AXIS":"6596.773","MEAN_ELEMENT_THEORY":"SGP4","PERIAPSIS":"214.787","BSTAR":"0.00302910000000","MEAN_MOTION_DDOT":"0.0000024532000","DECAY_DATE":null,"TLE_LINE1":"1 47416U 21006D   22023.11597198  .05848475  24532-5  30291-2 0  9990","EPOCH":"2022-01-23T02:46:59.979072","INCLINATION":"97.4742","MEAN_ANOMALY":"61.1151","OBJECT_TYPE":"PAYLOAD","LAUNCH_DATE":"2021-01-24","RCS_SIZE":"LARGE","REF_FRAME":"TEME","NORAD_CAT_ID":"47416","TLE_LINE2":"2 47416  97.4742  92.2837 0005838 299.3500  61.1151 16.20337312 55698","ECCENTRICITY":"0.00058380","EPHEMERIS_TYPE":"0","FILE":"3280368","SITE":"AFETR","ELEMENT_SET_NO":"999","PERIOD":"88.870","OBJECT_NAME":"STARLINK-2202","REV_AT_EPOCH":"5569","CLASSIFICATION_TYPE":"U","OBJECT_ID":"2021-006D","APOAPSIS":"222.489","CENTER_NAME":"EARTH","MEAN_MOTION_DOT":"0.05848475","RA_OF_ASC_NODE":"92.2837","COUNTRY_CODE":"US","MEAN_MOTION":"16.20337312"},{"CENTER_NAME":"EARTH","CLASSIFICATION_TYPE":"U","APOAPSIS":"211.458","OBJECT_ID":"2021-006K","REV_AT_EPOCH":"5571","COUNTRY_CODE":"US","MEAN_MOTION":"16.24546312","RA_OF_ASC_NODE":"92.4006","MEAN_MOTION_DOT":"0.08268650","SITE":"AFETR","ELEMENT_SET_NO":"999","FILE":"3280369","EPHEMERIS_TYPE":"0","OBJECT_NAME":"STARLINK-2208","PERIOD":"88.640","REF_FRAME":"TEME","NORAD_CAT_ID":"47422","TLE_LINE2":"2 47422  97.4753  92.4006 0006407 302.5522  57.5556 16.24546312 55718","RCS_SIZE":"LARGE","LAUNCH_DATE":"2021-01-24","EPOCH":"2022-01-23T04:06:31.419072","INCLINATION":"97.4753","OBJECT_TYPE":"PAYLOAD","MEAN_ANOMALY":"57.5556","ECCENTRICITY":"0.00064070","ARG_OF_PERICENTER":"302.5522","SEMIMAJOR_AXIS":"6585.374","GP_ID":"194404798","TIME_SYSTEM":"UTC","TLE_LINE1":"1 47422U 21006K   22023.17119698  .08268650  24633-5  30589-2 0  9994","BSTAR":"0.00305890000000","DECAY_DATE":null,"MEAN_MOTION_DDOT":"0.0000024633000","MEAN_ELEMENT_THEORY":"SGP4","PERIAPSIS":"203.020"},{"ARG_OF_PERICENTER":"69.2397","SEMIMAJOR_AXIS":"6925.330","TIME_SYSTEM":"UTC","GP_ID":"194393920","BSTAR":"0.00005561600000","DECAY_DATE":null,"MEAN_MOTION_DDOT":"0.0000000000000","TLE_LINE1":"1 47549U 21009B   22022.47599969  .00000547  00000-0  55616-4 0  9990","PERIAPSIS":"545.980","MEAN_ELEMENT_THEORY":"SGP4","RCS_SIZE":"LARGE","NORAD_CAT_ID":"47549","REF_FRAME":"TEME","TLE_LINE2":"2 47549  53.0555 297.7684 0001754  69.2397 290.8780 15.06406029 53768","EPOCH":"2022-01-22T11:25:26.373216","INCLINATION":"53.0555","MEAN_ANOMALY":"290.8780","OBJECT_TYPE":"PAYLOAD","LAUNCH_DATE":"2021-02-04","ECCENTRICITY":"0.00017540","FILE":"3280062","SITE":"AFETR","ELEMENT_SET_NO":"999","EPHEMERIS_TYPE":"0","OBJECT_NAME":"STARLINK-1806","PERIOD":"95.592","CLASSIFICATION_TYPE":"U","APOAPSIS":"548.410","OBJECT_ID":"2021-009B","CENTER_NAME":"EARTH","REV_AT_EPOCH":"5376","COUNTRY_CODE":"US","MEAN_MOTION":"15.06406029","MEAN_MOTION_DOT":"0.00000547","RA_OF_ASC_NODE":"297.7684"},{"EPHEMERIS_TYPE":"0","SITE":"AFETR","ELEMENT_SET_NO":"999","FILE":"3280062","PERIOD":"90.514","OBJECT_NAME":"STARLINK-1988","REV_AT_EPOCH":"5507","CENTER_NAME":"EARTH","CLASSIFICATION_TYPE":"U","APOAPSIS":"301.859","OBJECT_ID":"2021-009AN","RA_OF_ASC_NODE":"201.1011","MEAN_MOTION_DOT":"0.00103959","COUNTRY_CODE":"US","MEAN_MOTION":"15.90911882","GP_ID":"194395677","TIME_SYSTEM":"UTC","ARG_OF_PERICENTER":"90.5173","SEMIMAJOR_AXIS":"6677.867","PERIAPSIS":"297.605","MEAN_ELEMENT_THEORY":"SGP4","TLE_LINE1":"1 47584U 21009AN  22021.96049152  .00103959  15101-4  33400-3 0  9995","BSTAR":"0.00033400000000","DECAY_DATE":null,"MEAN_MOTION_DDOT":"0.0000151010000","LAUNCH_DATE":"2021-02-04","EPOCH":"2022-01-21T23:03:06.467328","INCLINATION":"53.0493","OBJECT_TYPE":"PAYLOAD","MEAN_ANOMALY":"269.6217","NORAD_CAT_ID":"47584","REF_FRAME":"TEME","TLE_LINE2":"2 47584  53.0493 201.1011 0003185  90.5173 269.6217 15.90911882 55076","RCS_SIZE":"LARGE","ECCENTRICITY":"0.00031850"},{"PERIOD":"95.593","OBJECT_NAME":"STARLINK-2027","EPHEMERIS_TYPE":"0","FILE":"3280062","ELEMENT_SET_NO":"999","SITE":"AFETR","MEAN_MOTION_DOT":"-0.00000279","RA_OF_ASC_NODE":"327.3767","MEAN_MOTION":"15.06388701","COUNTRY_CODE":"US","REV_AT_EPOCH":"5322","APOAPSIS":"548.526","OBJECT_ID":"2021-012AB","CLASSIFICATION_TYPE":"U","CENTER_NAME":"EARTH","MEAN_ELEMENT_THEORY":"SGP4","PERIAPSIS":"545.970","DECAY_DATE":null,"MEAN_MOTION_DDOT":"0.0000000000000","BSTAR":"0.00000018360000","TLE_LINE1":"1 47645U 21012AB  22022.56075769 -.00000279  00000-0  18360-6 0  9998","TIME_SYSTEM":"UTC","GP_ID":"194395433","SEMIMAJOR_AXIS":"6925.383","ARG_OF_PERICENTER":"210.0123","ECCENTRICITY":"0.00018450","MEAN_ANOMALY":"150.0761","OBJECT_TYPE":"PAYLOAD","EPOCH":"2022-01-22T13:27:29.464416","INCLINATION":"53.0557","LAUNCH_DATE":"2021-02-16","RCS_SIZE":"LARGE","TLE_LINE2":"2 47645  53.0557 327.3767 0001845 210.0123 150.0761 15.06388701 53226","REF_FRAME":"TEME","NORAD_CAT_ID":"47645"},{"SEMIMAJOR_AXIS":"6925.377","ARG_OF_PERICENTER":"71.4946","GP_ID":"194395198","TIME_SYSTEM":"UTC","TLE_LINE1":"1 47769U 21017AZ  22022.54419439  .00000139  00000-0  28236-4 0  9999","MEAN_MOTION_DDOT":"0.0000000000000","DECAY_DATE":null,"BSTAR":"0.00002823600000","PERIAPSIS":"546.327","MEAN_ELEMENT_THEORY":"SGP4","TLE_LINE2":"2 47769  53.0537 117.4473 0001321  71.4946 288.6187 15.06390834 50894","REF_FRAME":"TEME","NORAD_CAT_ID":"47769","RCS_SIZE":"LARGE","LAUNCH_DATE":"2021-03-04","MEAN_ANOMALY":"288.6187","OBJECT_TYPE":"PAYLOAD","EPOCH":"2022-01-22T13:03:38.395296","INCLINATION":"53.0537","ECCENTRICITY":"0.00013210","ELEMENT_SET_NO":"999","SITE":"AFETR","FILE":"3280062","EPHEMERIS_TYPE":"0","OBJECT_NAME":"STARLINK-2192","PERIOD":"95.593","CENTER_NAME":"EARTH","OBJECT_ID":"2021-017AZ","APOAPSIS":"548.156","CLASSIFICATION_TYPE":"U","REV_AT_EPOCH":"5089","MEAN_MOTION":"15.06390834","COUNTRY_CODE":"US","RA_OF_ASC_NODE":"117.4473","MEAN_MOTION_DOT":"0.00000139"}];
